{
  "type": "FeatureCollection",
  "generated_at": "2026-09-16T10:45:32.321411+00:00",
  "features": [
    {
      "type": "Feature",
      "geometry": {
        "type": "Point",
        "coordinates": [
          null,
          null
        ]
      },
      "properties": {
        "ObjectName": "KCGR-FUEL-fuel",
        "Status": "OP-open",
        "Specifier": "FUEL",
        "DateTime": "2026-09-15 0723",
        "ReportedBy": "AI4AE",
        "ReportCount": 1,
        "Location": "Murphy Gas Express",
        "Comment": "",
        "name": "KCGR-FUEL-fuel \u2014 Murphy Gas Express",
        "description": "OP-open | FUEL | Reported: 2026-09-15 0723 | By: AI4AE",
        "Contributors": [
          {
            "callsign": "AI4AE",
            "received_time": "2026-09-15T12:00:24.203879+00:00",
            "status_mapped": "OP-open",
            "location": "Murphy Gas Express"
          }
        ]
      }
    },
    {
      "type": "Feature",
      "geometry": {
        "type": "Point",
        "coordinates": [
          null,
          null
        ]
      },
      "properties": {
        "ObjectName": "KCGR-FUEL-fuel",
        "Status": "OP-open",
        "Specifier": "FUEL",
        "DateTime": "2026-09-15 0723",
        "ReportedBy": "AI4AE YOUR_CALLSIGN",
        "ReportCount": 1,
        "Location": "Murphy Gas Express",
        "Comment": "",
        "name": "KCGR-FUEL-fuel \u2014 Murphy Gas Express",
        "description": "OP-open | FUEL | Reported: 2026-09-15 0723 | By: AI4AE YOUR_CALLSIGN",
        "Contributors": [
          {
            "callsign": "AI4AE YOUR_CALLSIGN",
            "received_time": "2026-09-15T11:35:12.878994+00:00",
            "status_mapped": "OP-open",
            "location": "Murphy Gas Express"
          }
        ]
      }
    },
    {
      "type": "Feature",
      "geometry": {
        "type": "Point",
        "coordinates": [
          -80.743858,
          34.148401
        ]
      },
      "properties": {
        "ObjectName": "KCGR-CELL-cell",
        "Status": "OP-open",
        "Specifier": "VZ-Verizon",
        "DateTime": "11 1245",
        "ReportedBy": "UNKNOWN",
        "ReportCount": 1,
        "Location": "Elgin Ole Still Ln and Whiting Way",
        "Comment": "",
        "name": "KCGR-CELL-cell \u2014 Elgin Ole Still Ln and Whiting Way",
        "description": "OP-open | VZ-Verizon | Reported: 11 1245 | By: UNKNOWN",
        "Contributors": [
          {
            "callsign": "UNKNOWN",
            "received_time": "2026-09-11T17:48:59.369608+00:00",
            "status_mapped": "OP-open",
            "location": "Elgin Ole Still Ln and Whiting Way"
          }
        ]
      }
    },
    {
      "type": "Feature",
      "geometry": {
        "type": "Point",
        "coordinates": [
          -80.673972,
          34.230937
        ]
      },
      "properties": {
        "ObjectName": "KCGR-PWR-power",
        "Status": "LM-limited",
        "Specifier": "GN-generator",
        "DateTime": "Sept 9 2030",
        "ReportedBy": "AA4TE",
        "ReportCount": 1,
        "Location": "Harbor Freight Lugoff",
        "Comment": "Generators are good. (This is a test for presentation on Thurs. First one didn't work due to two stray '?' marks that the scripts didn't expect. in line 3 and line 7.)",
        "name": "KCGR-PWR-power \u2014 Harbor Freight Lugoff",
        "description": "LM-limited | GN-generator | Reported: Sept 9 2030 | By: AA4TE",
        "Contributors": [
          {
            "callsign": "AA4TE",
            "received_time": "2026-09-10T14:46:55.180829+00:00",
            "status_mapped": "LM-limited",
            "location": "Harbor Freight Lugoff"
          }
        ]
      }
    }
  ]
}